NORAD_CAT_ID,OBJECT_NAME,OBJECT_TYPE,EPOCH,MEAN_MOTION,ECCENTRICITY,INCLINATION,RA_OF_ASC_NODE,ARG_OF_PERICENTER,MEAN_ANOMALY,BSTAR,MEAN_MOTION_DOT,MEAN_MOTION_DDOT,TLE_LINE0,TLE_LINE1,TLE_LINE2,SEMIMAJOR_AXIS,PERIOD,APOGEE,PERIGEE,DECAYED
52666.0,STARLINK-4079,PAYLOAD,2023-04-17 13:04:30,15.08833524,0.0001426,53.2159,219.839,101.4732,258.6421,0.00022376,3.274e-05,0.0,0 STARLINK-4079,1 52666U 22053L   23107.54479781  .00003274  00000-0  22376-3 0  9994,2 52666  53.2159 219.8390 0001426 101.4732 258.6421 15.08833524 51457,6917.9,95.438,540.752,538.779,0.0
52666.0,STARLINK-4079,PAYLOAD,2023-04-17 17:50:39,15.08843866,0.0001358,53.2165,218.9475,102.0489,258.0656,0.00081683,0.00012737,0.0,0 STARLINK-4079,1 52666U 22053L   23107.74351747  .00012737  00000-0  81683-3 0  9997,2 52666  53.2165 218.9475 0001358 102.0489 258.0656 15.08843866 51485,6917.869,95.437,540.673,538.794,0.0
52666.0,STARLINK-4079,PAYLOAD,2023-04-18 09:44:31,15.08837034,0.0001127,53.2159,215.9722,100.9062,259.2057,0.00055325,8.527e-05,0.0,0 STARLINK-4079,1 52666U 22053L   23108.40592282  .00008527  00000-0  55325-3 0  9998,2 52666  53.2159 215.9722 0001127 100.9062 259.2057 15.08837034 51587,6917.889,95.438,540.534,538.975,0.0
52666.0,STARLINK-4079,PAYLOAD,2023-04-18 12:55:17,15.08847198,0.0001251,53.2159,215.378,91.9361,268.1774,0.00079606,0.00012406,0.0,0 STARLINK-4079,1 52666U 22053L   23108.53840225  .00012406  00000-0  79606-3 0  9994,2 52666  53.2159 215.3780 0001251  91.9361 268.1774 15.08847198 51604,6917.858,95.437,540.589,538.858,0.0
52666.0,STARLINK-4079,PAYLOAD,2023-04-18 16:06:04,15.08852741,0.0001374,53.2159,214.7843,88.8415,271.2734,0.001545,0.00024395,0.0,0 STARLINK-4079,1 52666U 22053L   23108.67088234  .00024395  00000-0  15450-2 0  9999,2 52666  53.2159 214.7843 0001374  88.8415 271.2734 15.08852741 51621,6917.841,95.437,540.657,538.756,0.0
52666.0,STARLINK-4079,PAYLOAD,2023-04-19 06:24:32,15.08851557,0.000142,53.2154,212.109,96.2047,263.9106,0.00098812,0.00015478,0.0,0 STARLINK-4079,1 52666U 22053L   23109.26704254  .00015478  00000-0  98812-3 0  9998,2 52666  53.2154 212.1090 0001420  96.2047 263.9106 15.08851557 51713,6917.845,95.437,540.692,538.728,0.0
52666.0,STARLINK-4079,PAYLOAD,2023-04-19 19:07:37,15.0887049,0.0001432,53.2165,209.7292,96.1277,263.9879,0.0012457,0.00019609,0.0,0 STARLINK-4079,1 52666U 22053L   23109.79695625  .00019609  00000-0  12457-2 0  9997,2 52666  53.2165 209.7292 0001432  96.1277 263.9879 15.08870490 51790,6917.787,95.436,540.643,538.662,0.0
52666.0,STARLINK-4079,PAYLOAD,2023-04-19 23:53:46,15.08854009,0.000137,53.2165,208.8374,79.2074,280.9072,0.0007877,0.00012275,0.0,0 STARLINK-4079,1 52666U 22053L   23109.99568033  .00012275  00000-0  78770-3 0  9994,2 52666  53.2165 208.8374 0001370  79.2074 280.9072 15.08854009 51825,6917.838,95.437,540.65,538.755,0.0
52666.0,STARLINK-4079,PAYLOAD,2023-04-20 12:36:51,15.08846969,0.0001151,53.215,206.4568,85.4954,274.6169,0.00048914,7.507e-05,0.0,0 STARLINK-4079,1 52666U 22053L   23110.52560031  .00007507  00000-0  48914-3 0  9994,2 52666  53.2150 206.4568 0001151  85.4954 274.6169 15.08846969 51903,6917.859,95.437,540.52,538.928,0.0
52666.0,STARLINK-4079,PAYLOAD,2023-04-21 12:27:39,15.08836939,0.0002111,53.2156,201.9983,67.1752,292.9462,0.00048503,7.439e-05,0.0,0 STARLINK-4079,1 52666U 22053L   23111.51921138  .00007439  00000-0  48503-3 0  9991,2 52666  53.2156 201.9983 0002111  67.1752 292.9462 15.08836939 52052,6917.89,95.438,541.215,538.294,0.0
52666.0,STARLINK-4079,PAYLOAD,2023-04-21 17:13:49,15.08833288,0.0001557,53.2143,201.1014,84.4728,275.6441,0.00074909,0.00011652,0.0,0 STARLINK-4079,1 52666U 22053L   23111.71793216  .00011652  00000-0  74909-3 0  9998,2 52666  53.2143 201.1014 0001557  84.4728 275.6441 15.08833288 52085,6917.901,95.438,540.843,538.689,0.0
52666.0,STARLINK-4079,PAYLOAD,2023-04-22 05:56:54,15.08852092,0.0001591,53.2146,198.7254,68.6115,291.5046,0.00092438,0.00014459,0.0,0 STARLINK-4079,1 52666U 22053L   23112.24784981  .00014459  00000-0  92438-3 0  9991,2 52666  53.2146 198.7254 0001591  68.6115 291.5046 15.08852092 52168,6917.843,95.437,540.809,538.608,0.0
52666.0,STARLINK-4079,PAYLOAD,2023-04-22 17:04:35,15.08875649,0.0001631,53.2144,196.6433,70.0042,290.1126,0.0011892,0.00018707,0.0,0 STARLINK-4079,1 52666U 22053L   23112.71152022  .00018707  00000-0  11892-2 0  9992,2 52666  53.2144 196.6433 0001631  70.0042 290.1126 15.08875649 52238,6917.771,95.435,540.765,538.508,0.0
52666.0,STARLINK-4079,PAYLOAD,2023-04-23 05:47:41,15.08831202,0.0001331,53.2146,194.2652,75.6463,284.4677,-0.00035786,-5.977e-05,0.0,0 STARLINK-4079,1 52666U 22053L   23113.24144791 -.00005977  00000-0 -35786-3 0  9991,2 52666  53.2146 194.2652 0001331  75.6463 284.4677 15.08831202 52315,6917.907,95.438,540.693,538.852,0.0
52666.0,STARLINK-4079,PAYLOAD,2023-04-23 16:55:23,15.08837848,0.0001519,53.2142,192.1829,87.3755,272.7411,0.00059241,9.152e-05,0.0,0 STARLINK-4079,1 52666U 22053L   23113.70513132  .00009152  00000-0  59241-3 0  9990,2 52666  53.2142 192.1829 0001519  87.3755 272.7411 15.08837848 52381,6917.887,95.438,540.803,538.701,0.0
52666.0,STARLINK-4079,PAYLOAD,2023-04-24 04:03:04,15.08905825,0.0001362,53.2148,190.1019,78.7421,281.3724,0.003837,0.00061421,0.0,0 STARLINK-4079,1 52666U 22053L   23114.16880717  .00061421  00000-0  38370-2 0  9993,2 52666  53.2148 190.1019 0001362  78.7421 281.3724 15.08905825 52458,6917.679,95.433,540.486,538.602,0.0
52666.0,STARLINK-4079,PAYLOAD,2023-04-24 21:32:17,15.08822083,9.68e-05,53.2148,186.8319,127.3839,232.7241,-0.005152,-0.00081315,0.0,0 STARLINK-4079,1 52666U 22053L   23114.89742277 -.00081315  00000-0 -51520-2 0  9999,2 52666  53.2148 186.8319 0000968 127.3839 232.7241 15.08822083 52568,6917.935,95.439,540.47,539.13,0.0
52666.0,STARLINK-4079,PAYLOAD,2023-04-25 10:15:25,15.08780236,0.0001265,53.2147,184.4517,102.3025,257.8108,0.00072096,0.00011186,0.0,0 STARLINK-4079,1 52666U 22053L   23115.42737437  .00011186  00000-0  72096-3 0  9990,2 52666  53.2147 184.4517 0001265 102.3025 257.8108 15.08780236 52644,6918.063,95.441,540.803,539.053,0.0
52666.0,STARLINK-4079,PAYLOAD,2023-04-26 13:17:00,15.08827725,0.0001076,53.2137,179.398,109.4733,250.6376,0.0011259,0.0001767,0.0,0 STARLINK-4079,1 52666U 22053L   23116.55347700  .00017670  00000-0  11259-2 0  9992,2 52666  53.2137 179.3980 0001076 109.4733 250.6376 15.08827725 52816,6917.918,95.438,540.527,539.039,0.0
52666.0,STARLINK-4079,PAYLOAD,2023-04-26 21:13:56,15.08843199,0.0001039,53.2134,177.9107,102.006,258.1048,0.0012823,0.0002018,0.0,0 STARLINK-4079,1 52666U 22053L   23116.88467739  .00020180  00000-0  12823-2 0  9991,2 52666  53.2134 177.9107 0001039 102.0060 258.1048 15.08843199 52866,6917.871,95.437,540.454,539.017,0.0
52666.0,STARLINK-4079,PAYLOAD,2023-04-27 11:32:23,15.08868082,0.0001074,53.2135,175.2342,97.9428,262.1686,0.0013869,0.0002187,0.0,0 STARLINK-4079,1 52666U 22053L   23117.48083100  .00021870  00000-0  13869-2 0  9992,2 52666  53.2135 175.2342 0001074  97.9428 262.1686 15.08868082 52959,6917.795,95.436,540.403,538.917,0.0
52666.0,STARLINK-4079,PAYLOAD,2023-04-28 03:26:14,15.08873037,0.0001386,53.2139,172.2636,81.0869,279.028,0.00096045,0.00015044,0.0,0 STARLINK-4079,1 52666U 22053L   23118.14322253  .00015044  00000-0  96045-3 0  9995,2 52666  53.2139 172.2636 0001386  81.0869 279.0280 15.08873037 53050,6917.779,95.435,540.603,538.686,0.0
52666.0,STARLINK-4079,PAYLOAD,2023-04-28 09:47:46,15.0886864,0.0001117,53.2138,171.0706,95.415,264.6969,0.00046569,7.137e-05,0.0,0 STARLINK-4079,1 52666U 22053L   23118.40817743  .00007137  00000-0  46569-3 0  9997,2 52666  53.2138 171.0706 0001117  95.4150 264.6969 15.08868640 53090,6917.793,95.436,540.431,538.885,0.0
52666.0,STARLINK-4079,PAYLOAD,2023-04-28 20:55:28,15.08866091,9.5e-05,53.2143,168.991,74.0478,286.0618,0.00044885,6.868e-05,0.0,0 STARLINK-4079,1 52666U 22053L   23118.87185215  .00006868  00000-0  44885-3 0  9999,2 52666  53.2143 168.9910 0000950  74.0478 286.0618 15.08866091 53163,6917.801,95.436,540.323,539.008,0.0
52666.0,STARLINK-4079,PAYLOAD,2023-04-29 03:17:00,15.08857398,0.0001667,53.2142,167.8001,80.3826,279.7354,0.00029181,4.361e-05,0.0,0 STARLINK-4079,1 52666U 22053L   23119.13681298  .00004361  00000-0  29181-3 0  9999,2 52666  53.2142 167.8001 0001667  80.3826 279.7354 15.08857398 53205,6917.827,95.436,540.845,538.539,0.0
52666.0,STARLINK-4079,PAYLOAD,2023-04-29 09:38:33,15.08854713,0.0001304,53.2152,166.6101,98.7733,261.3407,1.6919e-05,-1.9e-07,0.0,0 STARLINK-4079,1 52666U 22053L   23119.40177113 -.00000019  00000-0  16919-4 0  9998,2 52666  53.2152 166.6101 0001304  98.7733 261.3407 15.08854713 53240,6917.835,95.437,540.603,538.798,0.0
52666.0,STARLINK-4079,PAYLOAD,2023-04-30 03:07:47,15.08846075,0.0001428,53.215,163.3408,91.6651,268.4504,-5.2576e-05,-1.125e-05,0.0,0 STARLINK-4079,1 52666U 22053L   23120.13041146 -.00001125  00000-0 -52576-4 0  9995,2 52666  53.2150 163.3408 0001428  91.6651 268.4504 15.08846075 53350,6917.862,95.437,540.715,538.739,0.0
52666.0,STARLINK-4079,PAYLOAD,2023-04-30 09:29:20,15.08843032,0.000137,53.215,162.149,98.778,261.3368,-0.00011458,-2.111e-05,0.0,0 STARLINK-4079,1 52666U 22053L   23120.39537289 -.00002111  00000-0 -11458-3 0  9990,2 52666  53.2150 162.1490 0001370  98.7780 261.3368 15.08843032 53399,6917.871,95.437,540.684,538.788,0.0
52666.0,STARLINK-4079,PAYLOAD,2023-05-01 09:20:07,15.08836651,0.0001408,53.2161,157.6897,100.7353,259.3797,1.3784e-05,-6.9e-07,0.0,0 STARLINK-4079,1 52666U 22053L   23121.38897804 -.00000069  00000-0  13784-4 0  9996,2 52666  53.2161 157.6897 0001408 100.7353 259.3797 15.08836651 53542,6917.891,95.438,540.73,538.782,0.0
52666.0,STARLINK-4079,PAYLOAD,2023-05-01 12:30:53,15.08838071,0.0001395,53.2158,157.0939,103.0404,257.0744,1.7388e-05,-1.1e-07,0.0,0 STARLINK-4079,1 52666U 22053L   23121.52145690 -.00000011  00000-0  17388-4 0  9992,2 52666  53.2158 157.0939 0001395 103.0404 257.0744 15.08838071 53564,6917.886,95.438,540.716,538.786,0.0
